{
    "links": {
        "self": "http://www.neowsapp.com/rest/v1/neo/54051287?api_key=iIulBulltgU6a56xZRHN4H3l9WmuAYTsLGpBGhQ2"
    },
    "id": "54051287",
    "neo_reference_id": "54051287",
    "name": "(2020 QR2)",
    "designation": "2020 QR2",
    "nasa_jpl_url": "http://ssd.jpl.nasa.gov/sbdb.cgi?sstr=54051287",
    "absolute_magnitude_h": 25.366,
    "estimated_diameter": {
        "kilometers": {
            "estimated_diameter_min": 0.0224571674,
            "estimated_diameter_max": 0.0502157529
        },
        "meters": {
            "estimated_diameter_min": 22.4571674149,
            "estimated_diameter_max": 50.2157529218
        },
        "miles": {
            "estimated_diameter_min": 0.0139542326,
            "estimated_diameter_max": 0.0312026126
        },
        "feet": {
            "estimated_diameter_min": 73.6783731415,
            "estimated_diameter_max": 164.749850816
        }
    },
    "is_potentially_hazardous_asteroid": false,
    "close_approach_data": [
        {
            "close_approach_date": "2020-08-25",
            "close_approach_date_full": "2020-Aug-25 13:01",
            "epoch_date_close_approach": 1598360460000,
            "relative_velocity": {
                "kilometers_per_second": "6.1543044558",
                "kilometers_per_hour": "22155.4960408407",
                "miles_per_hour": "13766.5636371546"
            },
            "miss_distance": {
                "astronomical": "0.1015202572",
                "lunar": "39.4913800508",
                "kilometers": "15187214.238972164",
                "miles": "9436897.3333533032"
            },
            "orbiting_body": "Earth"
        }
    ],
    "orbital_data": {
        "orbit_id": "1",
        "orbit_determination_date": "2020-08-20 07:42:08",
        "first_observation_date": "2020-08-18",
        "last_observation_date": "2020-08-20",
        "data_arc_in_days": 2,
        "observations_used": 9,
        "orbit_uncertainty": "9",
        "minimum_orbit_intersection": ".100558",
        "jupiter_tisserand_invariant": "4.928",
        "epoch_osculation": "2459080.5",
        "eccentricity": ".159980402098431",
        "semi_major_axis": "1.31568003297208",
        "inclination": "11.5397842159964",
        "ascending_node_longitude": "148.7825629390961",
        "orbital_period": "551.2185858365234",
        "perihelion_distance": "1.10519701226433",
        "perihelion_argument": "198.6550173985574",
        "aphelion_distance": "1.526163053679831",
        "perihelion_time": "2459102.491948580592",
        "mean_anomaly": "345.6370926299624",
        "mean_motion": ".6530984427052072",
        "equinox": "J2000",
        "orbit_class": {
            "orbit_class_type": "AMO",
            "orbit_class_description": "Near-Earth asteroid orbits similar to that of 1221 Amor",
            "orbit_class_range": "1.017 AU < q (perihelion) < 1.3 AU"
        }
    },
    "is_sentry_object": false
}